OBJECT_NAME,OBJECT_ID,EPOCH,MEAN_MOTION,ECCENTRICITY,INCLINATION,RA_OF_ASC_NODE,ARG_OF_PERICENTER,MEAN_ANOMALY,EPHEMERIS_TYPE,CLASSIFICATION_TYPE,NORAD_CAT_ID,ELEMENT_SET_NO,REV_AT_EPOCH,BSTAR,MEAN_MOTION_DOT,MEAN_MOTION_DDOT
SCD 1,1993-009B,2026-07-14T22:04:56.632224,14.46128575,.00420781,24.9705,36.3396,71.6561,59.2236,0,U,22490,999,76513,.296407E-4,.294E-5,0
TECHSAT 1B (GO-32),1998-043D,2026-07-14T21:08:00.984480,14.24433320,.00021807,99.0085,189.3396,115.0869,245.0535,0,U,25397,999,45527,.22166027E-4,.5E-7,0
SCD 2,1998-060A,2026-07-14T11:56:25.569888,14.45534668,.00169494,24.9946,263.7395,52.2644,330.3985,0,U,25504,999,46428,.26177223E-4,.275E-5,0
DLR-TUBSAT,1999-029B,2026-07-14T22:02:26.705760,14.52433234,.00129673,98.6710,192.3368,265.6172,94.3541,0,U,25757,999,43727,.12903153E-4,.4E-7,0
TERRA,1999-068A,2026-07-14T21:36:47.054304,14.61123566,.0003399,97.9442,244.3459,123.2466,355.1489,0,U,25994,999,41365,.47980775E-4,.192E-5,0
MAROC-TUBSAT,2001-056D,2026-07-14T18:02:45.077568,13.70263536,.00206014,99.8097,13.1328,73.1798,5.6189,0,U,27004,999,22996,.13451863E-4,-.35E-6,0
AQUA,2002-022A,2026-07-14T12:07:11.762400,14.62196472,.0000927,98.4295,165.3370,111.8770,0.7592,0,U,27424,999,28726,.80863616E-4,.358E-5,0
SHIYAN-1 (SY-1),2004-012A,2026-07-14T18:34:47.307360,15.34446317,.00040561,97.8692,275.6477,276.3151,83.7628,0,U,28220,999,21532,.24327508E-3,.803E-4,0
AURA,2004-026A,2026-07-14T20:29:07.981440,14.61367520,.00013123,98.3430,152.5388,93.1140,267.0210,0,U,28376,999,17025,.81962688E-4,.357E-5,0
IRS-P5 (CARTOSAT-1),2005-017A,2026-07-14T22:15:50.737248,14.91116741,.00013994,97.5307,217.7337,55.1116,305.0235,0,U,28649,999,14795,.74206704E-4,.683E-5,0
SINAH 1,2005-043D,2026-07-14T22:28:27.075072,14.64175389,.00143784,98.2893,330.4269,184.3240,175.7840,0,U,28893,999,10458,.33752028E-4,.128E-5,0
RESURS-DK 1,2006-021A,2026-07-14T14:23:11.394816,15.13317802,.0007075,69.9308,268.5885,271.7724,88.2632,0,U,29228,999,10672,.57623E-4,.92E-5,0
ARIRANG-2 (KOMPSAT-2),2006-031A,2026-07-14T23:30:26.869824,14.64676704,.00142775,97.8306,19.0823,351.6507,167.8668,0,U,29268,999,6554,.87684454E-4,.422E-5,0
LAPAN-TUBSAT,2007-001A,2026-07-14T22:19:14.488320,14.85974483,.00135589,98.1347,195.7808,94.4803,265.7961,0,U,29709,999,5527,-.27743763E-4,-.3E-5,0
HAIYANG-1B,2007-010A,2026-07-14T21:40:24.525696,14.31033298,.00146206,98.3515,176.6758,116.5671,243.7013,0,U,31113,999,460,.27532973E-4,.31E-6,0
COSMO-SKYMED 1,2007-023A,2026-07-14T22:30:47.438784,14.97218584,.00014027,97.8845,28.0286,103.5054,256.6324,0,U,31598,999,3394,.12597732E-3,.1398E-4,0
TERRASAR-X,2007-026A,2026-07-07T11:29:59.023968,15.19153986,.0001878,97.4461,195.8972,86.9540,273.1909,0,U,31698,999,5630,.14624E-4,.24E-5,0
WORLDVIEW-1 (WV-1),2007-041A,2026-07-14T22:14:43.606176,15.24556733,.00014998,97.3905,315.2811,207.4916,152.6243,0,U,32060,999,4710,.13474844E-3,.3247E-4,0
YAOGAN-3,2007-055A,2026-07-14T23:33:04.022784,14.90884160,.00016665,97.8147,225.5842,79.7868,280.3538,0,U,32289,999,1001,.17227721E-3,.1642E-4,0
COSMO-SKYMED 2,2007-059A,2026-07-14T23:24:33.065280,14.82150393,.00014427,97.8894,19.1712,94.0628,266.0750,0,U,32376,999,612,.27187396E-4,.164E-5,0
RADARSAT-2,2007-061A,2026-07-14T22:56:54.771072,14.29982628,.00012937,98.5778,202.4919,85.1441,274.9889,0,U,32382,999,96992,-.54105581E-4,-.183E-5,0
CARTOSAT-2A,2008-021A,2026-07-14T21:58:02.737344,14.79277246,.00125651,97.7623,243.6755,28.0658,332.1229,0,U,32783,999,98290,.71458663E-4,.482E-5,0
HUANJING 1A (HJ-1A),2008-041A,2026-07-14T22:42:01.975680,14.84048327,.00203683,97.6690,180.7134,50.3531,309.9477,0,U,33320,999,96252,.42951369E-4,.308E-5,0
HUANJING 1B (HJ-1B),2008-041B,2026-07-14T23:52:59.797920,14.83365775,.00379437,97.6526,183.8478,91.8930,268.6630,0,U,33321,999,96253,.10300486E-3,.803E-5,0
GEOEYE 1,2008-042A,2026-07-14T21:18:44.062272,14.64649212,.00039686,98.1328,269.4875,347.8629,12.2477,0,U,33331,999,95420,.4318293E-4,.182E-5,0
THEOS,2008-049A,2026-07-14T22:33:17.017920,14.20135667,.00011227,98.5562,252.3201,87.0855,273.0451,0,U,33396,999,92190,-.43797856E-4,-.136E-5,0
COSMO-SKYMED 3,2008-054A,2026-07-14T23:07:26.656608,15.07113003,.00157596,97.8247,54.9940,167.3382,192.8244,0,U,33412,999,96112,.1603277E-3,.2348E-4,0
YAOGAN-4,2008-061A,2026-07-14T19:49:58.423296,14.83250900,.00138397,97.9304,129.1335,346.8701,13.2151,0,U,33446,999,94976,.61398421E-4,.448E-5,0
GOSAT (IBUKI),2009-002A,2026-07-14T21:19:26.966784,14.67539447,.00011442,98.0913,306.6256,87.5061,272.6274,0,U,33492,999,93552,.61198892E-4,.299E-5,0
DEIMOS-1,2009-041A,2026-07-14T22:15:23.245632,14.75263774,.00027774,97.7425,351.9567,92.8754,267.2774,0,U,35681,999,91097,.43005704E-4,.243E-5,0
