SCD 1                   
1 22490U 93009B   26195.92009991  .00000294  00000+0  29641-4 0  9990
2 22490  24.9705  36.3396 0042078  71.6561  59.2236 14.46128575765135
TECHSAT 1B (GO-32)      
1 25397U 98043D   26195.88056695  .00000005  00000+0  22166-4 0  9995
2 25397  99.0085 189.3396 0002180 115.0869 245.0535 14.24433320455272
SCD 2                   
1 25504U 98060A   26195.49751817  .00000275  00000+0  26177-4 0  9994
2 25504  24.9946 263.7395 0016949  52.2644 330.3985 14.45534668464280
DLR-TUBSAT              
1 25757U 99029B   26195.91836465  .00000004  00000+0  12903-4 0  9992
2 25757  98.6710 192.3368 0012967 265.6172  94.3541 14.52433234437275
TERRA                   
1 25994U 99068A   26195.90054461  .00000192  00000+0  47981-4 0  9997
2 25994  97.9442 244.3459 0003399 123.2466 355.1489 14.61123566413654
MAROC-TUBSAT            
1 27004U 01056D   26195.75191062 -.00000035  00000+0  13452-4 0  9996
2 27004  99.8097  13.1328 0020601  73.1798   5.6189 13.70263536229962
AQUA                    
1 27424U 02022A   26195.50499725  .00000358  00000+0  80864-4 0  9994
2 27424  98.4295 165.3370 0000927 111.8770   0.7592 14.62196472287266
SHIYAN-1 (SY-1)         
1 28220U 04012A   26195.77415865  .00008030  00000+0  24328-3 0  9999
2 28220  97.8692 275.6477 0004056 276.3151  83.7628 15.34446317215320
AURA                    
1 28376U 04026A   26195.85356460  .00000357  00000+0  81963-4 0  9993
2 28376  98.3430 152.5388 0001312  93.1140 267.0210 14.61367520170250
IRS-P5 (CARTOSAT-1)     
1 28649U 05017A   26195.92767057  .00000683  00000+0  74207-4 0  9998
2 28649  97.5307 217.7337 0001399  55.1116 305.0235 14.91116741147952
SINAH 1                 
1 28893U 05043D   26195.93642448  .00000128  00000+0  33752-4 0  9999
2 28893  98.2893 330.4269 0014378 184.3240 175.7840 14.64175389104581
RESURS-DK 1             
1 29228U 06021A   26195.59943744  .00000920  00000+0  57623-4 0  9997
2 29228  69.9308 268.5885 0007075 271.7724  88.2632 15.13317802106727
ARIRANG-2 (KOMPSAT-2)   
1 29268U 06031A   26195.97947766  .00000422  00000+0  87684-4 0  9999
2 29268  97.8306  19.0823 0014277 351.6507 167.8668 14.64676704 65540
LAPAN-TUBSAT            
1 29709U 07001A   26195.93002880 -.00000300  00000+0 -27744-4 0  9990
2 29709  98.1347 195.7808 0013558  94.4803 265.7961 14.85974483 55277
HAIYANG-1B              
1 31113U 07010A   26195.90306164  .00000031  00000+0  27533-4 0  9996
2 31113  98.3515 176.6758 0014620 116.5671 243.7013 14.31033298  4606
COSMO-SKYMED 1          
1 31598U 07023A   26195.93804906  .00001398  00000+0  12598-3 0  9998
2 31598  97.8845  28.0286 0001402 103.5054 256.6324 14.97218584 33946
TERRASAR-X              
1 31698U 07026A   26188.47915537  .00000240  00000+0  14624-4 0  9994
2 31698  97.4461 195.8972 0001878  86.9540 273.1909 15.19153986 56300
WORLDVIEW-1 (WV-1)      
1 32060U 07041A   26195.92689359  .00003247  00000+0  13475-3 0  9995
2 32060  97.3905 315.2811 0001499 207.4916 152.6243 15.24556733 47105
YAOGAN-3                
1 32289U 07055A   26195.98129656  .00001642  00000+0  17228-3 0  9995
2 32289  97.8147 225.5842 0001666  79.7868 280.3538 14.90884160 10016
COSMO-SKYMED 2          
1 32376U 07059A   26195.97538270  .00000164  00000+0  27187-4 0  9995
2 32376  97.8894  19.1712 0001442  94.0628 266.0750 14.82150393  6120
RADARSAT-2              
1 32382U 07061A   26195.95618948 -.00000183  00000+0 -54106-4 0  9998
2 32382  98.5778 202.4919 0001293  85.1441 274.9889 14.29982628969922
CARTOSAT-2A             
1 32783U 08021A   26195.91530946  .00000482  00000+0  71459-4 0  9997
2 32783  97.7623 243.6755 0012565  28.0658 332.1229 14.79277246982908
HUANJING 1A (HJ-1A)     
1 33320U 08041A   26195.94585620  .00000308  00000+0  42951-4 0  9991
2 33320  97.6690 180.7134 0020368  50.3531 309.9477 14.84048327962524
HUANJING 1B (HJ-1B)     
1 33321U 08041B   26195.99513655  .00000803  00000+0  10300-3 0  9998
2 33321  97.6526 183.8478 0037943  91.8930 268.6630 14.83365775962539
GEOEYE 1                
1 33331U 08042A   26195.88800998  .00000182  00000+0  43183-4 0  9993
2 33331  98.1328 269.4875 0003968 347.8629  12.2477 14.64649212954204
THEOS                   
1 33396U 08049A   26195.93978030 -.00000136  00000+0 -43798-4 0  9993
2 33396  98.5562 252.3201 0001122  87.0855 273.0451 14.20135667921903
COSMO-SKYMED 3          
1 33412U 08054A   26195.96350297  .00002348  00000+0  16033-3 0  9996
2 33412  97.8247  54.9940 0015759 167.3382 192.8244 15.07113003961120
YAOGAN-4                
1 33446U 08061A   26195.82637064  .00000448  00000+0  61398-4 0  9990
2 33446  97.9304 129.1335 0013839 346.8701  13.2151 14.83250900949761
GOSAT (IBUKI)           
1 33492U 09002A   26195.88850656  .00000299  00000+0  61199-4 0  9990
2 33492  98.0913 306.6256 0001144  87.5061 272.6274 14.67539447935522
DEIMOS-1                
1 35681U 09041A   26195.92735238  .00000243  00000+0  43006-4 0  9994
2 35681  97.7425 351.9567 0002777  92.8754 267.2774 14.75263774910970
